KUIPER-00176            
1 65788U 25217AC  26004.66670139  .00009864  00000+0  13199-2 0  9992
2 65788  51.9006 326.2121 0001454  96.9775 272.4474 14.79969332  3557
KUIPER-00101            
1 65947U 25228A   26004.13673340  .00008630  00000+0  11579-2 0  9990
2 65947  51.9000 286.0418 0000511  21.5044 338.5940 14.79990683 13675
KUIPER-00113            
1 65948U 25228B   26004.83335648 -.00031652  00000+0 -38283-2 0  9997
2 65948  51.8979 278.0705 0002101 111.2215 107.2337 14.83209846  5237
KUIPER-00117            
1 65949U 25228C   26004.83335648 -.00028164  00000+0 -36636-2 0  9992
2 65949  51.8981 280.4841 0001770 125.3662 333.2246 14.80128097  4416
KUIPER-00121            
1 65950U 25228D   26004.83335648 -.00035475  00000+0 -42295-2 0  9995
2 65950  51.8988 275.4009 0003681 133.4434 151.7469 14.83852911  3179
KUIPER-00122            
1 65951U 25228E   26004.03268046 -.00000154  00000+0  88540-5 0  9996
2 65951  51.9013 288.9946 0001516  78.8954 281.2179 14.79967311 13627
KUIPER-00123            
1 65952U 25228F   26004.20154842  .00000897  00000+0  14660-3 0  9997
2 65952  51.9004 288.2705 0001158 110.2995 249.8092 14.79962798 13642
KUIPER-00124            
1 65953U 25228G   26004.83335648 -.00012513  00000+0 -16156-2 0  9993
2 65953  51.8985 277.9634 0000851  99.9788 344.6241 14.79927147  5749
