<?xml version="1.0" encoding="UTF-8"?>
<ndm xmlns:xsi="http://www.w3.org/2001/XMLSchema-instance" xsi:noNamespaceSchemaLocation="https://sanaregistry.org/r/ndmxml_unqualified/ndmxml-2.0.0-master-2.0.xsd">
<omm id="CCSDS_OMM_VERS" version="2.0">
<header><CREATION_DATE/><ORIGINATOR/></header><body><segment><metadata><OBJECT_NAME>KUIPER-00176</OBJECT_NAME><OBJECT_ID>2025-217AC</OBJECT_ID><CENTER_NAME>EARTH</CENTER_NAME><REF_FRAME>TEME</REF_FRAME><TIME_SYSTEM>UTC</TIME_SYSTEM><MEAN_ELEMENT_THEORY>SGP4</MEAN_ELEMENT_THEORY></metadata><data><meanElements><EPOCH>2026-01-04T16:00:03.000096</EPOCH><MEAN_MOTION>14.79969332</MEAN_MOTION><ECCENTRICITY>.0001454</ECCENTRICITY><INCLINATION>51.9006</INCLINATION><RA_OF_ASC_NODE>326.2121</RA_OF_ASC_NODE><ARG_OF_PERICENTER>96.9775</ARG_OF_PERICENTER><MEAN_ANOMALY>272.4474</MEAN_ANOMALY></meanElements><tleParameters><EPHEMERIS_TYPE>0</EPHEMERIS_TYPE><CLASSIFICATION_TYPE>U</CLASSIFICATION_TYPE><NORAD_CAT_ID>65788</NORAD_CAT_ID><ELEMENT_SET_NO>999</ELEMENT_SET_NO><REV_AT_EPOCH>355</REV_AT_EPOCH><BSTAR>.13199E-2</BSTAR><MEAN_MOTION_DOT>.9864E-4</MEAN_MOTION_DOT><MEAN_MOTION_DDOT>0</MEAN_MOTION_DDOT></tleParameters></data></segment></body></omm>
<omm id="CCSDS_OMM_VERS" version="2.0">
<header><CREATION_DATE/><ORIGINATOR/></header><body><segment><metadata><OBJECT_NAME>KUIPER-00101</OBJECT_NAME><OBJECT_ID>2025-228A</OBJECT_ID><CENTER_NAME>EARTH</CENTER_NAME><REF_FRAME>TEME</REF_FRAME><TIME_SYSTEM>UTC</TIME_SYSTEM><MEAN_ELEMENT_THEORY>SGP4</MEAN_ELEMENT_THEORY></metadata><data><meanElements><EPOCH>2026-01-04T03:16:53.765760</EPOCH><MEAN_MOTION>14.79990683</MEAN_MOTION><ECCENTRICITY>.00005118</ECCENTRICITY><INCLINATION>51.9000</INCLINATION><RA_OF_ASC_NODE>286.0418</RA_OF_ASC_NODE><ARG_OF_PERICENTER>21.5044</ARG_OF_PERICENTER><MEAN_ANOMALY>338.5940</MEAN_ANOMALY></meanElements><tleParameters><EPHEMERIS_TYPE>0</EPHEMERIS_TYPE><CLASSIFICATION_TYPE>U</CLASSIFICATION_TYPE><NORAD_CAT_ID>65947</NORAD_CAT_ID><ELEMENT_SET_NO>999</ELEMENT_SET_NO><REV_AT_EPOCH>1367</REV_AT_EPOCH><BSTAR>.11579405E-2</BSTAR><MEAN_MOTION_DOT>.863E-4</MEAN_MOTION_DOT><MEAN_MOTION_DDOT>0</MEAN_MOTION_DDOT></tleParameters></data></segment></body></omm>
<omm id="CCSDS_OMM_VERS" version="2.0">
<header><CREATION_DATE/><ORIGINATOR/></header><body><segment><metadata><OBJECT_NAME>KUIPER-00113</OBJECT_NAME><OBJECT_ID>2025-228B</OBJECT_ID><CENTER_NAME>EARTH</CENTER_NAME><REF_FRAME>TEME</REF_FRAME><TIME_SYSTEM>UTC</TIME_SYSTEM><MEAN_ELEMENT_THEORY>SGP4</MEAN_ELEMENT_THEORY></metadata><data><meanElements><EPOCH>2026-01-04T20:00:01.999872</EPOCH><MEAN_MOTION>14.83209846</MEAN_MOTION><ECCENTRICITY>.0002101</ECCENTRICITY><INCLINATION>51.8979</INCLINATION><RA_OF_ASC_NODE>278.0705</RA_OF_ASC_NODE><ARG_OF_PERICENTER>111.2215</ARG_OF_PERICENTER><MEAN_ANOMALY>107.2337</MEAN_ANOMALY></meanElements><tleParameters><EPHEMERIS_TYPE>0</EPHEMERIS_TYPE><CLASSIFICATION_TYPE>U</CLASSIFICATION_TYPE><NORAD_CAT_ID>65948</NORAD_CAT_ID><ELEMENT_SET_NO>999</ELEMENT_SET_NO><REV_AT_EPOCH>523</REV_AT_EPOCH><BSTAR>-.38283E-2</BSTAR><MEAN_MOTION_DOT>-.31652E-3</MEAN_MOTION_DOT><MEAN_MOTION_DDOT>0</MEAN_MOTION_DDOT></tleParameters></data></segment></body></omm>
<omm id="CCSDS_OMM_VERS" version="2.0">
<header><CREATION_DATE/><ORIGINATOR/></header><body><segment><metadata><OBJECT_NAME>KUIPER-00117</OBJECT_NAME><OBJECT_ID>2025-228C</OBJECT_ID><CENTER_NAME>EARTH</CENTER_NAME><REF_FRAME>TEME</REF_FRAME><TIME_SYSTEM>UTC</TIME_SYSTEM><MEAN_ELEMENT_THEORY>SGP4</MEAN_ELEMENT_THEORY></metadata><data><meanElements><EPOCH>2026-01-04T20:00:01.999872</EPOCH><MEAN_MOTION>14.80128097</MEAN_MOTION><ECCENTRICITY>.000177</ECCENTRICITY><INCLINATION>51.8981</INCLINATION><RA_OF_ASC_NODE>280.4841</RA_OF_ASC_NODE><ARG_OF_PERICENTER>125.3662</ARG_OF_PERICENTER><MEAN_ANOMALY>333.2246</MEAN_ANOMALY></meanElements><tleParameters><EPHEMERIS_TYPE>0</EPHEMERIS_TYPE><CLASSIFICATION_TYPE>U</CLASSIFICATION_TYPE><NORAD_CAT_ID>65949</NORAD_CAT_ID><ELEMENT_SET_NO>999</ELEMENT_SET_NO><REV_AT_EPOCH>441</REV_AT_EPOCH><BSTAR>-.36636E-2</BSTAR><MEAN_MOTION_DOT>-.28164E-3</MEAN_MOTION_DOT><MEAN_MOTION_DDOT>0</MEAN_MOTION_DDOT></tleParameters></data></segment></body></omm>
<omm id="CCSDS_OMM_VERS" version="2.0">
<header><CREATION_DATE/><ORIGINATOR/></header><body><segment><metadata><OBJECT_NAME>KUIPER-00121</OBJECT_NAME><OBJECT_ID>2025-228D</OBJECT_ID><CENTER_NAME>EARTH</CENTER_NAME><REF_FRAME>TEME</REF_FRAME><TIME_SYSTEM>UTC</TIME_SYSTEM><MEAN_ELEMENT_THEORY>SGP4</MEAN_ELEMENT_THEORY></metadata><data><meanElements><EPOCH>2026-01-04T20:00:01.999872</EPOCH><MEAN_MOTION>14.83852911</MEAN_MOTION><ECCENTRICITY>.0003681</ECCENTRICITY><INCLINATION>51.8988</INCLINATION><RA_OF_ASC_NODE>275.4009</RA_OF_ASC_NODE><ARG_OF_PERICENTER>133.4434</ARG_OF_PERICENTER><MEAN_ANOMALY>151.7469</MEAN_ANOMALY></meanElements><tleParameters><EPHEMERIS_TYPE>0</EPHEMERIS_TYPE><CLASSIFICATION_TYPE>U</CLASSIFICATION_TYPE><NORAD_CAT_ID>65950</NORAD_CAT_ID><ELEMENT_SET_NO>999</ELEMENT_SET_NO><REV_AT_EPOCH>317</REV_AT_EPOCH><BSTAR>-.42295E-2</BSTAR><MEAN_MOTION_DOT>-.35475E-3</MEAN_MOTION_DOT><MEAN_MOTION_DDOT>0</MEAN_MOTION_DDOT></tleParameters></data></segment></body></omm>
<omm id="CCSDS_OMM_VERS" version="2.0">
<header><CREATION_DATE/><ORIGINATOR/></header><body><segment><metadata><OBJECT_NAME>KUIPER-00122</OBJECT_NAME><OBJECT_ID>2025-228E</OBJECT_ID><CENTER_NAME>EARTH</CENTER_NAME><REF_FRAME>TEME</REF_FRAME><TIME_SYSTEM>UTC</TIME_SYSTEM><MEAN_ELEMENT_THEORY>SGP4</MEAN_ELEMENT_THEORY></metadata><data><meanElements><EPOCH>2026-01-04T00:47:03.591744</EPOCH><MEAN_MOTION>14.79967311</MEAN_MOTION><ECCENTRICITY>.00015163</ECCENTRICITY><INCLINATION>51.9013</INCLINATION><RA_OF_ASC_NODE>288.9946</RA_OF_ASC_NODE><ARG_OF_PERICENTER>78.8954</ARG_OF_PERICENTER><MEAN_ANOMALY>281.2179</MEAN_ANOMALY></meanElements><tleParameters><EPHEMERIS_TYPE>0</EPHEMERIS_TYPE><CLASSIFICATION_TYPE>U</CLASSIFICATION_TYPE><NORAD_CAT_ID>65951</NORAD_CAT_ID><ELEMENT_SET_NO>999</ELEMENT_SET_NO><REV_AT_EPOCH>1362</REV_AT_EPOCH><BSTAR>.8854008E-5</BSTAR><MEAN_MOTION_DOT>-.154E-5</MEAN_MOTION_DOT><MEAN_MOTION_DDOT>0</MEAN_MOTION_DDOT></tleParameters></data></segment></body></omm>
<omm id="CCSDS_OMM_VERS" version="2.0">
<header><CREATION_DATE/><ORIGINATOR/></header><body><segment><metadata><OBJECT_NAME>KUIPER-00123</OBJECT_NAME><OBJECT_ID>2025-228F</OBJECT_ID><CENTER_NAME>EARTH</CENTER_NAME><REF_FRAME>TEME</REF_FRAME><TIME_SYSTEM>UTC</TIME_SYSTEM><MEAN_ELEMENT_THEORY>SGP4</MEAN_ELEMENT_THEORY></metadata><data><meanElements><EPOCH>2026-01-04T04:50:13.783488</EPOCH><MEAN_MOTION>14.79962798</MEAN_MOTION><ECCENTRICITY>.0001158</ECCENTRICITY><INCLINATION>51.9004</INCLINATION><RA_OF_ASC_NODE>288.2705</RA_OF_ASC_NODE><ARG_OF_PERICENTER>110.2995</ARG_OF_PERICENTER><MEAN_ANOMALY>249.8092</MEAN_ANOMALY></meanElements><tleParameters><EPHEMERIS_TYPE>0</EPHEMERIS_TYPE><CLASSIFICATION_TYPE>U</CLASSIFICATION_TYPE><NORAD_CAT_ID>65952</NORAD_CAT_ID><ELEMENT_SET_NO>999</ELEMENT_SET_NO><REV_AT_EPOCH>1364</REV_AT_EPOCH><BSTAR>.1466E-3</BSTAR><MEAN_MOTION_DOT>.897E-5</MEAN_MOTION_DOT><MEAN_MOTION_DDOT>0</MEAN_MOTION_DDOT></tleParameters></data></segment></body></omm>
<omm id="CCSDS_OMM_VERS" version="2.0">
<header><CREATION_DATE/><ORIGINATOR/></header><body><segment><metadata><OBJECT_NAME>KUIPER-00124</OBJECT_NAME><OBJECT_ID>2025-228G</OBJECT_ID><CENTER_NAME>EARTH</CENTER_NAME><REF_FRAME>TEME</REF_FRAME><TIME_SYSTEM>UTC</TIME_SYSTEM><MEAN_ELEMENT_THEORY>SGP4</MEAN_ELEMENT_THEORY></metadata><data><meanElements><EPOCH>2026-01-04T20:00:01.999872</EPOCH><MEAN_MOTION>14.79927147</MEAN_MOTION><ECCENTRICITY>.0000851</ECCENTRICITY><INCLINATION>51.8985</INCLINATION><RA_OF_ASC_NODE>277.9634</RA_OF_ASC_NODE><ARG_OF_PERICENTER>99.9788</ARG_OF_PERICENTER><MEAN_ANOMALY>344.6241</MEAN_ANOMALY></meanElements><tleParameters><EPHEMERIS_TYPE>0</EPHEMERIS_TYPE><CLASSIFICATION_TYPE>U</CLASSIFICATION_TYPE><NORAD_CAT_ID>65953</NORAD_CAT_ID><ELEMENT_SET_NO>999</ELEMENT_SET_NO><REV_AT_EPOCH>574</REV_AT_EPOCH><BSTAR>-.16156E-2</BSTAR><MEAN_MOTION_DOT>-.12513E-3</MEAN_MOTION_DOT><MEAN_MOTION_DDOT>0</MEAN_MOTION_DDOT></tleParameters></data></segment></body></omm>

</ndm>
